{
  "type": "FeatureCollection",
  "features": [
    {
      "type": "Feature",
      "properties": {
        "norad_id": 66491,
        "name": "STARLINK-35663",
        "group": "last-30-days",
        "lat": 41.15957021196555,
        "lon": 177.0208711767148,
        "alt_km": 408.41008473453803,
        "timestamp": "2025-12-15T19:00:44.075818+00:00",
        "meta_object_name": "STARLINK-35663",
        "meta_object_id": "2025-263G",
        "meta_epoch": "2025-12-14T17:57:25.207488",
        "meta_mean_motion": 15.50581981,
        "meta_eccentricity": 6.799e-05,
        "meta_inclination": 43.0002,
        "meta_ra_of_asc_node": 113.3919,
        "meta_arg_of_pericenter": 268.3335,
        "meta_mean_anomaly": 91.7447,
        "meta_ephemeris_type": 0,
        "meta_classification_type": "U",
        "meta_norad_cat_id": 66491,
        "meta_element_set_no": 999,
        "meta_rev_at_epoch": 587,
        "meta_bstar": 0.0013451244,
        "meta_mean_motion_dot": 0.00079382,
        "meta_mean_motion_ddot": 0,
        "tle_line1": "1 66491U 25263G   25348.74820842  .00079382  00000+0  13451-2 0  9995",
        "tle_line2": "2 66491  43.0002 113.3919 0000679 268.3335  91.7447 15.50581981  5871"
      },
      "geometry": {
        "type": "Point",
        "coordinates": [
          177.0208711767148,
          41.15957021196555
        ]
      }
    },
    {
      "type": "Feature",
      "properties": {
        "norad_id": 66492,
        "name": "STARLINK-35673",
        "group": "last-30-days",
        "lat": -35.892279111818496,
        "lon": -21.287495545402436,
        "alt_km": 445.91749575711856,
        "timestamp": "2025-12-15T19:00:44.075829+00:00",
        "meta_object_name": "STARLINK-35673",
        "meta_object_id": "2025-263H",
        "meta_epoch": "2025-12-14T20:00:06.000192",
        "meta_mean_motion": 15.40670284,
        "meta_eccentricity": 0.00015993,
        "meta_inclination": 43,
        "meta_ra_of_asc_node": 113.2895,
        "meta_arg_of_pericenter": 285.8795,
        "meta_mean_anomaly": 28.9678,
        "meta_ephemeris_type": 0,
        "meta_classification_type": "U",
        "meta_norad_cat_id": 66492,
        "meta_element_set_no": 999,
        "meta_rev_at_epoch": 597,
        "meta_bstar": 0.0025644682,
        "meta_mean_motion_dot": 0.00108246,
        "meta_mean_motion_ddot": 0,
        "tle_line1": "1 66492U 25263H   25348.83340278  .00108246  00000+0  25645-2 0  9996",
        "tle_line2": "2 66492  43.0000 113.2895 0001599 285.8795  28.9678 15.40670284  5971"
      },
      "geometry": {
        "type": "Point",
        "coordinates": [
          -21.287495545402436,
          -35.892279111818496
        ]
      }
    },
    {
      "type": "Feature",
      "properties": {
        "norad_id": 66493,
        "name": "STARLINK-35597",
        "group": "last-30-days",
        "lat": 32.73255825150677,
        "lon": 150.95669904131617,
        "alt_km": 433.21067723354645,
        "timestamp": "2025-12-15T19:00:44.075840+00:00",
        "meta_object_name": "STARLINK-35597",
        "meta_object_id": "2025-263J",
        "meta_epoch": "2025-12-14T20:00:06.000192",
        "meta_mean_motion": 15.46698704,
        "meta_eccentricity": 0.00018701,
        "meta_inclination": 43.0003,
        "meta_ra_of_asc_node": 112.9024,
        "meta_arg_of_pericenter": 292.1538,
        "meta_mean_anomaly": 182.2128,
        "meta_ephemeris_type": 0,
        "meta_classification_type": "U",
        "meta_norad_cat_id": 66493,
        "meta_element_set_no": 999,
        "meta_rev_at_epoch": 597,
        "meta_bstar": -0.041931625,
        "meta_mean_motion_dot": -0.01924208,
        "meta_mean_motion_ddot": 0,
        "tle_line1": "1 66493U 25263J   25348.83340278 -.01924208  00000+0 -41932-1 0  9990",
        "tle_line2": "2 66493  43.0003 112.9024 0001870 292.1538 182.2128 15.46698704  5970"
      },
      "geometry": {
        "type": "Point",
        "coordinates": [
          150.95669904131617,
          32.73255825150677
        ]
      }
    },
    {
      "type": "Feature",
      "properties": {
        "norad_id": 66494,
        "name": "STARLINK-35689",
        "group": "last-30-days",
        "lat": -14.379768500767268,
        "lon": 91.55195611096659,
        "alt_km": 444.5857983657379,
        "timestamp": "2025-12-15T19:00:44.075850+00:00",
        "meta_object_name": "STARLINK-35689",
        "meta_object_id": "2025-263K",
        "meta_epoch": "2025-12-14T20:00:06.000192",
        "meta_mean_motion": 15.40652606,
        "meta_eccentricity": 0.00012484,
        "meta_inclination": 42.9999,
        "meta_ra_of_asc_node": 113.0484,
        "meta_arg_of_pericenter": 280.2589,
        "meta_mean_anomaly": 134.1335,
        "meta_ephemeris_type": 0,
        "meta_classification_type": "U",
        "meta_norad_cat_id": 66494,
        "meta_element_set_no": 999,
        "meta_rev_at_epoch": 597,
        "meta_bstar": 0.0021649222,
        "meta_mean_motion_dot": 0.00091073,
        "meta_mean_motion_ddot": 0,
        "tle_line1": "1 66494U 25263K   25348.83340278  .00091073  00000+0  21649-2 0  9997",
        "tle_line2": "2 66494  42.9999 113.0484 0001248 280.2589 134.1335 15.40652606  5979"
      },
      "geometry": {
        "type": "Point",
        "coordinates": [
          91.55195611096659,
          -14.379768500767268
        ]
      }
    },
    {
      "type": "Feature",
      "properties": {
        "norad_id": 66495,
        "name": "STARLINK-35832",
        "group": "last-30-days",
        "lat": 2.4053138109508088,
        "lon": 110.04298833554249,
        "alt_km": 442.5498069296673,
        "timestamp": "2025-12-15T19:00:44.075861+00:00",
        "meta_object_name": "STARLINK-35832",
        "meta_object_id": "2025-263L",
        "meta_epoch": "2025-12-14T20:00:06.000192",
        "meta_mean_motion": 15.40639613,
        "meta_eccentricity": 0.00020774,
        "meta_inclination": 43.0001,
        "meta_ra_of_asc_node": 112.986,
        "meta_arg_of_pericenter": 291.3839,
        "meta_mean_anomaly": 147.9158,
        "meta_ephemeris_type": 0,
        "meta_classification_type": "U",
        "meta_norad_cat_id": 66495,
        "meta_element_set_no": 999,
        "meta_rev_at_epoch": 597,
        "meta_bstar": 0.0023357748,
        "meta_mean_motion_dot": 0.00098338,
        "meta_mean_motion_ddot": 0,
        "tle_line1": "1 66495U 25263L   25348.83340278  .00098338  00000+0  23358-2 0  9998",
        "tle_line2": "2 66495  43.0001 112.9860 0002077 291.3839 147.9158 15.40639613  5972"
      },
      "geometry": {
        "type": "Point",
        "coordinates": [
          110.04298833554249,
          2.4053138109508088
        ]
      }
    },
    {
      "type": "Feature",
      "properties": {
        "norad_id": 66496,
        "name": "STARLINK-35909",
        "group": "last-30-days",
        "lat": 42.558000656971345,
        "lon": -172.55796533313386,
        "alt_km": 408.74591834072453,
        "timestamp": "2025-12-15T19:00:44.075871+00:00",
        "meta_object_name": "STARLINK-35909",
        "meta_object_id": "2025-263M",
        "meta_epoch": "2025-12-14T17:55:24.888576",
        "meta_mean_motion": 15.50618537,
        "meta_eccentricity": 0.00016145,
        "meta_inclination": 43.0003,
        "meta_ra_of_asc_node": 113.3825,
        "meta_arg_of_pericenter": 273.9995,
        "meta_mean_anomaly": 86.068,
        "meta_ephemeris_type": 0,
        "meta_classification_type": "U",
        "meta_norad_cat_id": 66496,
        "meta_element_set_no": 999,
        "meta_rev_at_epoch": 587,
        "meta_bstar": 0.0012124212,
        "meta_mean_motion_dot": 0.00071539,
        "meta_mean_motion_ddot": 0,
        "tle_line1": "1 66496U 25263M   25348.74681584  .00071539  00000+0  12124-2 0  9990",
        "tle_line2": "2 66496  43.0003 113.3825 0001614 273.9995  86.0680 15.50618537  5871"
      },
      "geometry": {
        "type": "Point",
        "coordinates": [
          -172.55796533313386,
          42.558000656971345
        ]
      }
    },
    {
      "type": "Feature",
      "properties": {
        "norad_id": 66497,
        "name": "STARLINK-35899",
        "group": "last-30-days",
        "lat": 42.76781332282996,
        "lon": -169.67911250132775,
        "alt_km": 408.58505671676176,
        "timestamp": "2025-12-15T19:00:44.075881+00:00",
        "meta_object_name": "STARLINK-35899",
        "meta_object_id": "2025-263N",
        "meta_epoch": "2025-12-14T10:11:08.456352",
        "meta_mean_motion": 15.50607173,
        "meta_eccentricity": 0.00016015,
        "meta_inclination": 42.9981,
        "meta_ra_of_asc_node": 115.261,
        "meta_arg_of_pericenter": 257.0983,
        "meta_mean_anomaly": 102.9698,
        "meta_ephemeris_type": 0,
        "meta_classification_type": "U",
        "meta_norad_cat_id": 66497,
        "meta_element_set_no": 999,
        "meta_rev_at_epoch": 582,
        "meta_bstar": 0.0013470224,
        "meta_mean_motion_dot": 0.00079569,
        "meta_mean_motion_ddot": 0,
        "tle_line1": "1 66497U 25263N   25348.42440343  .00079569  00000+0  13470-2 0  9998",
        "tle_line2": "2 66497  42.9981 115.2610 0001601 257.0983 102.9698 15.50607173  5820"
      },
      "geometry": {
        "type": "Point",
        "coordinates": [
          -169.67911250132775,
          42.76781332282996
        ]
      }
    }
  ]
}